ONEWEB-0709             
1 55172U 23004AJ  25351.61800980 -.00000090  00000+0 -29049-3 0  9994
2 55172  87.8854  57.2428 0001178  74.3057 285.8201 13.11416650142071
ONEWEB-0710             
1 55173U 23004AK  25351.64040101  .00000012  00000+0 -31002-5 0  9996
2 55173  87.9106  41.9698 0001743 105.3059 254.8265 13.17647732143673
ONEWEB-0711             
1 55174U 23004AL  25351.58922457  .00000061  00000+0  13711-3 0  9991
2 55174  87.8861  57.2226 0001862 128.6080 231.5215 13.11414214142039
ONEWEB-0713             
1 55175U 23004AM  25351.60784602 -.00000441  00000+0 -12814-2 0  9999
2 55175  87.8856  57.2213 0001727 118.9855 241.1447 13.11418074142023
ONEWEB-0715             
1 55176U 23004AN  25351.60274996 -.00000478  00000+0 -13849-2 0  9999
2 55176  87.8858  57.2229 0001049  96.8262 263.2986 13.11415246142061
ONEWEB-0716             
1 55177U 23004AP  25351.63365063 -.00000030  00000+0 -11030-3 0  9994
2 55177  87.9108  41.9711 0001976  94.5443 265.5914 13.17649405143678
ONEWEB-0717             
1 55178U 23004AQ  25351.61677032  .00000008  00000+0 -13370-4 0  9999
2 55178  87.9117  41.9455 0001628 123.8131 236.3156 13.17650130143725
ONEWEB-0719             
1 55179U 23004AR  25351.62690152 -.00000038  00000+0 -13143-3 0  9990
2 55179  87.9116  41.9261 0002004  99.0219 261.1140 13.17647890143672
ONEWEB-0530             
1 55796U 23029A   25351.42566086 -.00000052  00000+0 -15866-3 0  9998
2 55796  87.9203 310.7330 0001863  97.4779 262.6566 13.20770252137150
ONEWEB-0534             
1 55797U 23029B   25351.41303972 -.00000036  00000+0 -11977-3 0  9992
2 55797  87.9197 310.7358 0001975  80.6374 279.4983 13.20769831137152
ONEWEB-0556             
1 55798U 23029C   25351.41935873  .00000007  00000+0 -13972-4 0  9999
2 55798  87.9202 310.7349 0002797  89.1319 271.0135 13.20773004137150
ONEWEB-0562             
1 55799U 23029D   25351.40674152  .00000142  00000+0  31734-3 0  9993
2 55799  87.9198 310.7193 0002280 103.9721 256.1666 13.20771602137156
ONEWEB-0563             
1 55800U 23029E   25351.62768684  .00000037  00000+0  59413-4 0  9992
2 55800  87.9205 310.7028 0002098  78.2483 281.8885 13.20769576137178
ONEWEB-0564             
1 55801U 23029F   25351.39410722  .00001159  00000+0  28192-2 0  9998
2 55801  87.9195 310.7253 0002044  92.5440 267.5927 13.20764966137154
ONEWEB-0638             
1 55802U 23029G   25351.62380042  .00000197  00000+0  49718-3 0  9995
2 55802  87.8985 325.9410 0002220  92.0790 268.0595 13.14504208135545
ONEWEB-0639             
1 55803U 23029H   25351.52651788  .00000099  00000+0  21563-3 0  9992
2 55803  87.9192 341.1263 0002357  60.2895 299.8472 13.19724735134940
ONEWEB-0640             
1 55804U 23029J   25351.48107256  .00000089  00000+0  20424-3 0  9998
2 55804  87.8993 325.9572 0002591  84.0266 276.1159 13.14503688135542
ONEWEB-0641             
1 55805U 23029K   25351.52177506  .00000053  00000+0  10010-3 0  9990
2 55805  87.9201 341.1086 0001833  81.5048 278.6292 13.19725421134959
ONEWEB-0642             
1 55806U 23029L   25351.51703868  .00000068  00000+0  13838-3 0  9993
2 55806  87.9191 341.1323 0001978  60.3665 299.7664 13.19725324134940
ONEWEB-0643             
1 55807U 23029M   25351.45093717  .00000203  00000+0  51210-3 0  9999
2 55807  87.8996 325.9494 0001692  59.9660 300.1638 13.14504813135519
ONEWEB-0644             
1 55808U 23029N   25351.51229712  .00000017  00000+0  10249-4 0  9994
2 55808  87.9192 341.1426 0001800  74.7739 285.3593 13.19726816134941
ONEWEB-0645             
1 55809U 23029P   25351.45859715 -.00000047  00000+0 -14886-3 0  9995
2 55809  87.9191 341.1470 0002274  76.7760 283.3626 13.19724055134939
ONEWEB-0646             
1 55810U 23029Q   25351.47597216  .00000063  00000+0  12402-3 0  9992
2 55810  87.9201 341.1349 0001811  77.2734 282.8602 13.19724793134927
ONEWEB-0648             
1 55811U 23029R   25351.49534177 -.00000148  00000+0 -43329-3 0  9990
2 55811  87.8994 325.9025 0002520  64.3577 295.7813 13.14500212135524
ONEWEB-0649             
1 55812U 23029S   25351.50124023  .00000057  00000+0  11021-3 0  9999
2 55812  87.9200 341.1266 0002024  76.8536 283.2822 13.19725068134967
ONEWEB-0650             
1 55813U 23029T   25351.49650037  .00000077  00000+0  16091-3 0  9991
2 55813  87.9193 341.1333 0001919  72.2629 287.8713 13.19723982134938
ONEWEB-0652             
1 55814U 23029U   25351.47631698  .00000174  00000+0  43387-3 0  9998
2 55814  87.8992 325.9265 0001706  88.5264 271.6061 13.14503822135491
ONEWEB-0653             
1 55815U 23029V   25351.46045822  .00000194  00000+0  48814-3 0  9998
2 55815  87.8985 325.9190 0001932  88.2024 271.9327 13.14504448135520
ONEWEB-0654             
1 55816U 23029W   25351.45569770  .00000197  00000+0  49591-3 0  9997
2 55816  87.8990 325.9193 0001771  95.6685 264.4647 13.14504803135545
ONEWEB-0656             
1 55817U 23029X   25351.61506699  .00000085  00000+0  17644-3 0  9997
2 55817  87.9209 310.6389 0001828  95.8960 264.2382 13.20771036137186
ONEWEB-0657             
1 55818U 23029Y   25351.49176487  .00000030  00000+0  42636-4 0  9992
2 55818  87.9192 341.1362 0001144 101.1709 258.9552 13.19726848134940
ONEWEB-0658             
1 55819U 23029Z   25351.48702678 -.00000169  00000+0 -45541-3 0  9991
2 55819  87.9209 341.0916 0001842  72.9698 287.1637 13.19725805134952
ONEWEB-0660             
1 55820U 23029AA  25351.43349597 -.00000203  00000+0 -58201-3 0  9991
2 55820  87.8999 325.9031 0002132  81.6909 278.4463 13.14505248135529
ONEWEB-0661             
1 55821U 23029AB  25351.46838364  .00000214  00000+0  54177-3 0  9998
2 55821  87.8989 325.9614 0002190  84.5944 275.5435 13.14505007135510
ONEWEB-0662             
1 55822U 23029AC  25351.42715002 -.00000478  00000+0 -13251-2 0  9999
2 55822  87.8989 325.9759 0002076  80.7853 279.3512 13.14502780135558
ONEWEB-0663             
1 55823U 23029AD  25351.58579305 -.00000018  00000+0 -76331-4 0  9991
2 55823  87.9220 310.7116 0002188  73.0045 287.1328 13.20853627137177
ONEWEB-0664             
1 55824U 23029AE  25351.60243074  .00000081  00000+0  16722-3 0  9991
2 55824  87.9199 310.7131 0002173  88.3128 271.8254 13.20769969137178
ONEWEB-0665             
1 55825U 23029AF  25351.46521239  .00000225  00000+0  57208-3 0  9992
2 55825  87.8991 325.9400 0002076  78.5880 281.5482 13.14505108135538
ONEWEB-0666             
1 55826U 23029AG  25351.59612449  .00000134  00000+0  29847-3 0  9998
2 55826  87.9200 310.7034 0001220  95.2091 264.9181 13.20771316137185
ONEWEB-0667             
1 55827U 23029AH  25351.58981981  .00000055  00000+0  10341-3 0  9999
2 55827  87.9212 310.6377 0002047  80.5540 279.5824 13.20772243137177
ONEWEB-0669             
1 55828U 23029AJ  25351.58508444  .00000029  00000+0  38819-4 0  9991
2 55828  87.9201 310.6726 0002009 101.4659 258.6701 13.20771755137175
ONEWEB-0670             
1 55829U 23029AK  25351.44302839  .00000001  00000+0 -32556-4 0  9990
2 55829  87.8992 325.9647 0002187  86.7631 273.3749 13.14504060135557
ONEWEB-0671             
1 55830U 23029AL  25351.48228227  .00000013  00000+0 -70886-6 0  9997
2 55830  87.9198 341.1341 0001992  85.0919 275.0441 13.19726400134931
ONEWEB-0672             
1 55831U 23029AM  25351.42882832 -.00000001  00000+0 -34189-4 0  9992
2 55831  87.9205 310.6845 0001660  87.2545 272.8778 13.20770504137153
ONEWEB-0673             
1 55832U 23029AN  25351.53520795  .00000127  00000+0  28399-3 0  9994
2 55832  87.9209 341.1042 0001951  86.6487 273.4869 13.19726309134941
ONEWEB-0674             
1 55833U 23029AP  25351.48742209 -.00000065  00000+0 -21075-3 0  9992
2 55833  87.8989 325.9337 0002265  88.6832 271.4557 13.14504043135541
ONEWEB-0675             
1 55834U 23029AQ  25351.47439294  .00000079  00000+0  16501-3 0  9990
2 55834  87.9191 341.1438 0001522  85.3246 274.8061 13.19725376134958
ONEWEB-0720             
1 55835U 23029AR  25351.54231053  .00000149  00000+0  33980-3 0  9990
2 55835  87.9191 341.1283 0001999  77.3015 282.8341 13.19725147134888
ONEWEB-0537             
1 56046U 23043A   25351.48586224  .00000032  00000+0  50489-4 0  9992
2 56046  87.9049 264.9511 0001465  75.2569 284.8724 13.16595312135053
ONEWEB-0538             
1 56047U 23043B   25351.47951961  .00000047  00000+0  89465-4 0  9998
2 56047  87.9048 264.9563 0001540  63.9757 296.1533 13.16596610135064
ONEWEB-0546             
1 56048U 23043C   25351.46685930  .00000154  00000+0  36842-3 0  9997
2 56048  87.9059 264.9509 0001103  91.2067 268.9190 13.16597625135052
ONEWEB-0547             
1 56049U 23043D   25351.50183505  .00000013  00000+0  99252-6 0  9995
2 56049  87.9225 280.2113 0001811  70.9321 289.2009 13.21826011134226
ONEWEB-0548             
1 56050U 23043E   25351.49140306  .00000021  00000+0  20142-4 0  9996
2 56050  87.9040 264.9521 0002075  83.3624 276.7744 13.16594193135058
ONEWEB-0549             
1 56051U 23043F   25351.57012128  .00000087  00000+0  17998-3 0  9992
2 56051  87.9221 280.2116 0001810  67.3354 292.7971 13.21826758134239
ONEWEB-0550             
1 56052U 23043G   25351.55693799  .00000004  00000+0 -21647-4 0  9997
2 56052  87.9221 280.2092 0001806  80.1328 280.0009 13.21823497134231
ONEWEB-0551             
1 56053U 23043H   25351.60639258  .00000116  00000+0  27339-3 0  9990
2 56053  87.8997 295.4666 0001921  71.6684 288.4655 13.15549309132523
ONEWEB-0552             
1 56054U 23043J   25351.32492760  .00000145  00000+0  32038-3 0  9999
2 56054  87.9221 280.2640 0001989  70.3898 289.7451 13.21826617134208
ONEWEB-0553             
1 56055U 23043K   25351.24519658 -.00000006  00000+0 -49275-4 0  9997
2 56055  87.9048 265.0019 0001471  85.0691 275.0608 13.16596549135033
ONEWEB-0554             
1 56056U 23043L   25351.46052382  .00000118  00000+0  27594-3 0  9999
2 56056  87.9035 264.9728 0001861  81.0908 279.0433 13.16592204135040
